NORAD_CAT_ID,OBJECT_NAME,OBJECT_TYPE,EPOCH,MEAN_MOTION,ECCENTRICITY,INCLINATION,RA_OF_ASC_NODE,ARG_OF_PERICENTER,MEAN_ANOMALY,BSTAR,MEAN_MOTION_DOT,MEAN_MOTION_DDOT,TLE_LINE0,TLE_LINE1,TLE_LINE2,SEMIMAJOR_AXIS,PERIOD,APOGEE,PERIGEE,DECAYED
53601.0,STARLINK-4675,PAYLOAD,2023-01-18 04:26:29,15.08870119,0.0001681,53.2142,350.8453,71.0421,289.0753,0.0024070999999999,0.00038261,0.0,0 STARLINK-4675,1 53601U 22104P   23018.18505798  .00038261  00000-0  24071-2 0  9997,2 53601  53.2142 350.8453 0001681  71.0421 289.0753 15.08870119 21842,6917.7880000000005,95.436,540.816,538.49,0.0
53601.0,STARLINK-4675,PAYLOAD,2023-01-18 20:20:19,15.08873606,0.0001679,53.2141,347.871,83.1532,276.9651,0.0012858,0.00020254,0.0,0 STARLINK-4675,1 53601U 22104P   23018.84744853  .00020254  00000-0  12858-2 0  9990,2 53601  53.2141 347.8710 0001679  83.1532 276.9651 15.08873606 21944,6917.778,95.435,540.804,538.481,0.0
53601.0,STARLINK-4675,PAYLOAD,2023-01-19 07:28:00,15.08882879,0.0001533,53.2147,345.789,84.4192,275.6975,0.0017504,0.00027712,0.0,0 STARLINK-4675,1 53601U 22104P   23019.31111961  .00027712  00000-0  17504-2 0  9990,2 53601  53.2147 345.7890 0001533  84.4192 275.6975 15.08882879 22703,6917.749,95.435,540.675,538.554,0.0
53601.0,STARLINK-4675,PAYLOAD,2023-01-20 04:08:02,15.08825134,0.0001279,53.2149,341.9229,103.1805,256.933,0.00090897,0.00014202,0.0,0 STARLINK-4675,1 53601U 22104P   23020.17225203  .00014202  00000-0  90897-3 0  9998,2 53601  53.2149 341.9229 0001279 103.1805 256.9330 15.08825134 22142,6917.926,95.438,540.6759999999999,538.906,0.0
53601.0,STARLINK-4675,PAYLOAD,2023-01-20 07:18:48,15.08829729,0.0001503,53.2155,341.3277,100.9621,259.154,7.2418e-05,8.64e-06,0.0,0 STARLINK-4675,1 53601U 22104P   23020.30473154  .00000864  00000-0  72418-4 0  9992,2 53601  53.2155 341.3277 0001503 100.9621 259.1540 15.08829729 22857,6917.911999999999,95.438,540.817,538.737,0.0
53601.0,STARLINK-4675,PAYLOAD,2023-01-21 05:34:12,15.08859795,0.0001351,53.2166,337.1657,98.51,261.6046,0.0011302999999999,0.00017756,0.0,0 STARLINK-4675,1 53601U 22104P   23021.23209160  .00017756  00000-0  11303-2 0  9991,2 53601  53.2166 337.1657 0001351  98.5100 261.6046 15.08859795 22304,6917.82,95.436,540.619,538.75,0.0
53601.0,STARLINK-4675,PAYLOAD,2023-01-22 03:49:37,15.0883962,0.0001195,53.2148,333.0009,95.7584,264.3544,0.00020745,3.015e-05,0.0,0 STARLINK-4675,1 53601U 22104P   23022.15945815  .00003015  00000-0  20745-3 0  9991,2 53601  53.2148 333.0009 0001195  95.7584 264.3544 15.08839620 22444,6917.882,95.438,540.573,538.92,0.0
53601.0,STARLINK-4675,PAYLOAD,2023-01-23 05:15:47,15.08836584,0.0001304,53.2157,328.2447,93.1051,267.009,0.00021708,3.168e-05,0.0,0 STARLINK-4675,1 53601U 22104P   23023.21930293  .00003168  00000-0  21708-3 0  9992,2 53601  53.2157 328.2447 0001304  93.1051 267.0090 15.08836584 22609,6917.891,95.438,540.658,538.854,0.0
53601.0,STARLINK-4675,PAYLOAD,2023-01-24 05:06:34,15.0885113,0.0001398,53.2156,323.7843,77.8848,282.23,0.00039987,6.084e-05,0.0,0 STARLINK-4675,1 53601U 22104P   23024.21290080  .00006084  00000-0  39987-3 0  9994,2 53601  53.2156 323.7843 0001398  77.8848 282.2300 15.08851130 22757,6917.846,95.437,540.678,538.744,0.0
53601.0,STARLINK-4675,PAYLOAD,2023-01-25 03:21:58,15.08849729,0.0001493,53.2162,319.619,75.5295,284.5863,0.00012674,1.73e-05,0.0,0 STARLINK-4675,1 53601U 22104P   23025.14026184  .00001730  00000-0  12674-3 0  9996,2 53601  53.2162 319.6190 0001493  75.5295 284.5863 15.08849729 22895,6917.851,95.437,540.748,538.683,0.0
53601.0,STARLINK-4675,PAYLOAD,2023-01-25 12:54:17,15.08842801,0.000128,53.2155,317.8359,78.2884,281.8252,0.00010013,1.306e-05,0.0,0 STARLINK-4675,1 53601U 22104P   23025.53770379  .00001306  00000-0  10013-3 0  9995,2 53601  53.2155 317.8359 0001280  78.2884 281.8252 15.08842801 22955,6917.871999999999,95.437,540.622,538.851,0.0
53601.0,STARLINK-4675,PAYLOAD,2023-01-26 01:37:22,15.08846309,0.0001199,53.2156,315.456,75.7092,284.4033,0.00021608,3.153e-05,0.0,0 STARLINK-4675,1 53601U 22104P   23026.06762181  .00003153  00000-0  21608-3 0  9990,2 53601  53.2156 315.4560 0001199  75.7092 284.4033 15.08846309 23725,6917.861,95.437,540.556,538.8969999999999,0.0
53601.0,STARLINK-4675,PAYLOAD,2023-01-26 22:17:23,15.08844091,0.000111,53.215,311.5913,74.2448,285.8667,4.403e-05,4.13e-06,0.0,0 STARLINK-4675,1 53601U 22104P   23026.92874002  .00000413  00000-0  44030-4 0  9992,2 53601  53.2150 311.5913 0001110  74.2448 285.8667 15.08844091 23162,6917.868,95.437,540.501,538.965,0.0
53601.0,STARLINK-4675,PAYLOAD,2023-01-27 04:38:55,15.08850774,0.0001281,53.2149,310.4,87.3086,272.8053,0.00019923,2.885e-05,0.0,0 STARLINK-4675,1 53601U 22104P   23027.19369718  .00002885  00000-0  19923-3 0  9992,2 53601  53.2149 310.4000 0001281  87.3086 272.8053 15.08850774 23897,6917.847,95.437,540.599,538.826,0.0
53601.0,STARLINK-4675,PAYLOAD,2023-01-28 02:54:19,15.08841258,0.0001175,53.2152,306.2376,84.7362,275.3764,0.00018589,2.672e-05,0.0,0 STARLINK-4675,1 53601U 22104P   23028.12106285  .00002672  00000-0  18589-3 0  9995,2 53601  53.2152 306.2376 0001175  84.7362 275.3764 15.08841258 23344,6917.877,95.437,540.554,538.929,0.0
53601.0,STARLINK-4675,PAYLOAD,2023-01-28 04:29:42,15.08842363,0.0001151,53.215,305.9404,83.5112,276.6011,0.00023364,3.433e-05,0.0,0 STARLINK-4675,1 53601U 22104P   23028.18730251  .00003433  00000-0  23364-3 0  9990,2 53601  53.2150 305.9404 0001151  83.5112 276.6011 15.08842363 24049,6917.873,95.437,540.534,538.942,0.0
53601.0,STARLINK-4675,PAYLOAD,2023-01-28 18:48:11,15.08838216,0.0001098,53.2148,303.2639,87.1618,272.95,0.00024443,3.604e-05,0.0,0 STARLINK-4675,1 53601U 22104P   23028.78346698  .00003604  00000-0  24443-3 0  9993,2 53601  53.2148 303.2639 0001098  87.1618 272.9500 15.08838216 23445,6917.886,95.438,540.51,538.991,0.0
53601.0,STARLINK-4675,PAYLOAD,2023-01-29 18:38:59,15.0881509,9.88e-05,53.2147,298.803,89.1599,270.9507,-0.00033364,-5.59e-05,0.0,0 STARLINK-4675,1 53601U 22104P   23029.77707966 -.00005590  00000-0 -33364-3 0  9992,2 53601  53.2147 298.8030 0000988  89.1599 270.9507 15.08815090 23591,6917.957,95.439,540.505,539.138,0.0
53601.0,STARLINK-4675,PAYLOAD,2023-01-30 04:11:18,15.0882794,7.91e-05,53.2141,297.0197,83.0084,277.0998,0.00014386,2.002e-05,0.0,0 STARLINK-4675,1 53601U 22104P   23030.17452197  .00002002  00000-0  14386-3 0  9997,2 53601  53.2141 297.0197 0000791  83.0084 277.0998 15.08827940 23650,6917.917,95.438,540.329,539.235,0.0
53601.0,STARLINK-4675,PAYLOAD,2023-01-30 21:40:33,15.0884855,7.3e-05,53.2141,293.7488,75.9472,284.1601,0.00080756,0.00012591,0.0,0 STARLINK-4675,1 53601U 22104P   23030.90316215  .00012591  00000-0  80756-3 0  9996,2 53601  53.2141 293.7488 0000730  75.9472 284.1601 15.08848550 24459,6917.854,95.437,540.224,539.214,0.0
53601.0,STARLINK-4675,PAYLOAD,2023-01-31 02:26:42,15.08864959,6.98e-05,53.2138,292.8565,74.2248,285.8821,0.0011622,0.00018269,0.0,0 STARLINK-4675,1 53601U 22104P   23031.10187869  .00018269  00000-0  11622-2 0  9993,2 53601  53.2138 292.8565 0000698  74.2248 285.8821 15.08864959 23796,6917.804,95.436,540.152,539.186,0.0
53601.0,STARLINK-4675,PAYLOAD,2023-01-31 18:20:32,15.08868709,7.51e-05,53.2134,289.8829,71.1904,288.917,0.0006598,0.00010237,0.0,0 STARLINK-4675,1 53601U 22104P   23031.76427001  .00010237  00000-0  65980-3 0  9994,2 53601  53.2134 289.8829 0000751  71.1904 288.9170 15.08868709 23895,6917.793,95.436,540.177,539.138,0.0
53601.0,STARLINK-4675,PAYLOAD,2023-01-31 23:06:41,15.08875928,7.31e-05,53.2135,288.9908,73.2217,286.8855,0.00080372,0.00012539,0.0,0 STARLINK-4675,1 53601U 22104P   23031.96298510  .00012539  00000-0  80372-3 0  9996,2 53601  53.2135 288.9908 0000731  73.2217 286.8855 15.08875928 24611,6917.771,95.435,540.141,539.13,0.0
53601.0,STARLINK-4675,PAYLOAD,2023-02-01 02:17:27,15.0888076,7.55e-05,53.2134,288.3961,72.2607,287.8468,0.00090417,0.00014147,0.0,0 STARLINK-4675,1 53601U 22104P   23032.09546164  .00014147  00000-0  90417-3 0  9990,2 53601  53.2134 288.3961 0000755  72.2607 287.8468 15.08880760 24634,6917.756,95.435,540.143,539.099,0.0
53601.0,STARLINK-4675,PAYLOAD,2023-02-02 02:08:15,15.08845281,0.0001064,53.2132,283.9354,72.3937,287.7171,2.4074e-05,9.5e-07,0.0,0 STARLINK-4675,1 53601U 22104P   23033.08906539  .00000095  00000-0  24074-4 0  9990,2 53601  53.2132 283.9354 0001064  72.3937 287.7171 15.08845281 24099,6917.864,95.437,540.465,538.993,0.0
53601.0,STARLINK-4675,PAYLOAD,2023-02-03 01:59:02,15.08851112,0.0001059,53.2127,279.4739,67.1573,292.9531,0.00033838,5.103e-05,0.0,0 STARLINK-4675,1 53601U 22104P   23034.08266301  .00005103  00000-0  33838-3 0  9999,2 53601  53.2127 279.4739 0001059  67.1573 292.9531 15.08851112 24933,6917.846,95.437,540.444,538.979,0.0
53601.0,STARLINK-4675,PAYLOAD,2023-02-04 22:29:50,15.0884884,9.45e-05,53.2129,271.1479,74.8625,285.2472,0.00030318,4.542e-05,0.0,0 STARLINK-4675,1 53601U 22104P   23035.93738464  .00004542  00000-0  30318-3 0  9994,2 53601  53.2129 271.1479 0000945  74.8625 285.2472 15.08848840 24529,6917.853,95.437,540.372,539.065,0.0
53601.0,STARLINK-4675,PAYLOAD,2023-02-05 00:05:13,15.08850864,9.69e-05,53.213,270.8505,76.5129,283.5971,0.00035447,5.36e-05,0.0,0 STARLINK-4675,1 53601U 22104P   23036.00362392  .00005360  00000-0  35447-3 0  9993,2 53601  53.2130 270.8505 0000969  76.5129 283.5971 15.08850864 25223,6917.847,95.437,540.383,539.042,0.0
53601.0,STARLINK-4675,PAYLOAD,2023-02-05 19:09:51,15.08838586,9.89e-05,53.2127,267.2821,88.459,271.6516,0.00010119,1.323e-05,0.0,0 STARLINK-4675,1 53601U 22104P   23036.79850947  .00001323  00000-0  10119-3 0  9991,2 53601  53.2127 267.2821 0000989  88.4590 271.6516 15.08838586 24652,6917.885,95.438,540.434,539.066,0.0
53601.0,STARLINK-4675,PAYLOAD,2023-02-05 22:20:37,15.08838563,9.96e-05,53.2127,266.6874,79.5265,280.584,0.00012911,1.768e-05,0.0,0 STARLINK-4675,1 53601U 22104P   23036.93099014  .00001768  00000-0  12911-3 0  9992,2 53601  53.2127 266.6874 0000996  79.5265 280.5840 15.08838563 25364,6917.885,95.438,540.439,539.061,0.0
